OBJECT_NAME,OBJECT_ID,EPOCH,MEAN_MOTION,ECCENTRICITY,INCLINATION,RA_OF_ASC_NODE,ARG_OF_PERICENTER,MEAN_ANOMALY,EPHEMERIS_TYPE,CLASSIFICATION_TYPE,NORAD_CAT_ID,ELEMENT_SET_NO,REV_AT_EPOCH,BSTAR,MEAN_MOTION_DOT,MEAN_MOTION_DDOT
FLORIPASAT-1,2019-093G,2026-07-12T12:10:07.073184,15.04131189,.00110352,97.7933,287.9289,352.7552,7.3512,0,U,44885,999,35645,.21375273E-3,.2903E-4,0
SHUNTIAN,2019-093H,2026-07-12T13:42:32.615712,14.95270975,.00112776,97.8008,281.6040,346.6184,13.4735,0,U,44886,999,35597,.11434911E-3,.1201E-4,0
ELEKTRO-L 3,2019-095A,2026-07-12T12:09:45.230400,1.00271135,.00011607,0.3185,82.1564,18.7819,87.8863,0,U,44903,999,2396,0,-.96E-6,0
GONETS-M 14,2019-096A,2026-07-12T15:31:08.472576,12.42870633,.00143663,82.5229,68.8560,95.4983,264.7736,0,U,44905,999,29684,.74181891E-4,.2E-6,0
GONETS-M 15,2019-096B,2026-07-12T14:17:29.285376,12.42883100,.00159987,82.5248,69.3531,117.5267,242.7441,0,U,44906,999,29680,.3729751E-3,.62E-6,0
GONETS-M 16,2019-096C,2026-07-12T14:54:40.719168,12.42892454,.00108837,82.5194,68.2775,156.7991,203.3582,0,U,44907,999,29679,.30244776E-3,.52E-6,0
RS-44 & BREEZE-KM R/B,2019-096E,2026-07-12T11:48:37.282752,12.79748944,.02185547,82.5240,322.8900,85.2823,277.3199,0,U,44909,999,30558,-.65806452E-4,-.3E-7,0
JILIN-1 KUANFU 01,2020-003A,2026-07-12T12:28:52.422816,15.10858212,.00090336,97.5021,266.9817,206.7766,153.2999,0,U,45016,999,35915,.93686894E-4,.1496E-4,0
XINGYUN-2 01,2020-028A,2026-07-12T14:57:52.070112,15.11909990,.00108787,97.4877,185.5216,110.9587,249.2809,0,U,45602,999,33868,.6850903E-4,.1111E-4,0
XINGYUN-2 02,2020-028B,2026-07-12T14:33:39.616128,15.11635302,.00108086,97.5078,199.1524,174.6137,185.5212,0,U,45603,999,33867,.87478613E-4,.1424E-4,0
HAIYANG-1D,2020-036A,2026-07-12T13:51:28.504800,14.34181314,.00040697,98.4552,134.7055,75.4242,284.7394,0,U,45721,999,31861,.37482041E-4,.62E-6,0
M2 PATHFINDER,2020-037E,2026-07-12T12:22:48.137952,15.04786510,.00131107,97.8146,25.0339,70.7385,289.5258,0,U,45727,999,32930,.67432922E-4,.888E-5,0
GAOFEN DUOMO (GFDM),2020-042A,2026-07-12T14:44:05.565984,14.76915052,.00108753,97.7739,252.5741,359.1530,0.9660,0,U,45856,999,32476,.12305624E-3,.817E-5,0
ZIYUAN 3-03 (ZY 3-03),2020-051A,2026-07-12T15:19:33.878784,15.21186947,.00026999,97.5371,260.6546,260.6356,99.4574,0,U,45939,999,33121,.14644294E-4,.256E-5,0
NEMO-HD,2020-061F,2026-07-12T15:36:51.287904,15.45103043,.00010026,97.1911,255.3525,88.4257,271.7107,0,U,46277,999,32591,.15147591E-3,.7078E-4,0
NAPA-1,2020-061BA,2026-07-12T14:20:08.005632,15.71652481,.00023459,97.2449,268.6755,179.1995,180.9272,0,U,46320,999,32572,.47840805E-3,.61711E-3,0
JILIN-1 GAOFEN 3E,2020-065D,2026-07-12T14:26:53.728800,15.66955109,.00106813,97.2221,246.8539,80.3621,279.8846,0,U,46457,999,32373,.4952132E-3,.52766E-3,0
JILIN-1 GAOFEN 3F,2020-065E,2026-07-12T14:40:07.797504,15.63719322,.00119992,97.2177,244.0685,66.7796,293.4726,0,U,46458,999,32367,.4973412E-3,.46598E-3,0
JILIN-1 GAOFEN 3G,2020-065F,2026-07-12T13:57:59.037984,15.76452362,.00050946,97.2238,251.3082,289.3403,70.7312,0,U,46459,999,32393,.61741871E-3,.98348E-3,0
JILIN-1 GAOFEN 3H,2020-065G,2026-07-12T14:49:36.346656,15.71908922,.000598,97.2180,247.5005,211.2943,148.7966,0,U,46460,999,32387,.58210455E-3,.76118E-3,0
HAIYANG-2C,2020-066A,2026-07-12T14:43:27.721920,13.83372662,.00077574,65.9957,151.9779,237.1086,122.9236,0,U,46469,999,29301,-.50440525E-4,-.137E-5,0
HJ-2A,2020-067A,2026-07-12T15:29:53.535264,14.76547884,.000392,97.8825,271.4156,162.1256,198.0092,0,U,46478,999,31201,.10265063E-3,.666E-5,0
HJ-2B,2020-067B,2026-07-12T14:44:48.378912,14.76509595,.00018934,97.8890,272.4275,106.8725,253.2693,0,U,46479,999,31201,.7254293E-4,.456E-5,0
GONETS-M 17,2020-068A,2026-07-12T13:35:21.520320,12.42873943,.00219453,82.5003,331.7132,342.5119,17.5203,0,U,46486,999,26231,-.34845263E-4,.5E-7,0
GONETS-M 18,2020-068B,2026-07-12T14:38:55.657824,12.42874673,.00191675,82.4956,330.7941,339.0302,20.9990,0,U,46487,999,26230,-.20274954E-3,-.18E-6,0
GONETS-M 19,2020-068C,2026-07-12T14:03:01.014624,12.42892686,.0013187,82.4981,331.2646,355.9276,4.1694,0,U,46488,999,26240,-.20144754E-3,-.18E-6,0
DEKART,2020-068H,2026-07-12T14:04:54.309216,15.37910721,.00089627,97.8739,204.6859,181.6932,178.4282,0,U,46493,999,31967,.20339108E-3,.7498E-4,0
