FLORIPASAT-1            
1 44885U 19093G   26193.50702631  .00002903  00000+0  21375-3 0  9990
2 44885  97.7933 287.9289 0011035 352.7552   7.3512 15.04131189356457
SHUNTIAN                
1 44886U 19093H   26193.57121083  .00001201  00000+0  11435-3 0  9990
2 44886  97.8008 281.6040 0011277 346.6184  13.4735 14.95270975355976
ELEKTRO-L 3             
1 44903U 19095A   26193.50677350 -.00000096  00000+0  00000+0 0  9992
2 44903   0.3185  82.1564 0001160  18.7819  87.8863  1.00271135 23967
GONETS-M 14             
1 44905U 19096A   26193.64662584  .00000020  00000+0  74182-4 0  9996
2 44905  82.5229  68.8560 0014366  95.4983 264.7736 12.42870633296843
GONETS-M 15             
1 44906U 19096B   26193.59547784  .00000062  00000+0  37298-3 0  9997
2 44906  82.5248  69.3531 0015998 117.5267 242.7441 12.42883100296800
GONETS-M 16             
1 44907U 19096C   26193.62130462  .00000052  00000+0  30245-3 0  9997
2 44907  82.5194  68.2775 0010883 156.7991 203.3582 12.42892454296795
RS-44 & BREEZE-KM R/B   
1 44909U 19096E   26193.49209818 -.00000003  00000+0 -65806-4 0  9996
2 44909  82.5240 322.8900 0218554  85.2823 277.3199 12.79748944305580
JILIN-1 KUANFU 01       
1 45016U 20003A   26193.52005119  .00001496  00000+0  93687-4 0  9991
2 45016  97.5021 266.9817 0009033 206.7766 153.2999 15.10858212359154
XINGYUN-2 01            
1 45602U 20028A   26193.62351933  .00001111  00000+0  68509-4 0  9997
2 45602  97.4877 185.5216 0010878 110.9587 249.2809 15.11909990338680
XINGYUN-2 02            
1 45603U 20028B   26193.60670852  .00001424  00000+0  87479-4 0  9994
2 45603  97.5078 199.1524 0010808 174.6137 185.5212 15.11635302338671
HAIYANG-1D              
1 45721U 20036A   26193.57741325  .00000062  00000+0  37482-4 0  9990
2 45721  98.4552 134.7055 0004069  75.4242 284.7394 14.34181314318618
M2 PATHFINDER           
1 45727U 20037E   26193.51583493  .00000888  00000+0  67433-4 0  9996
2 45727  97.8146  25.0339 0013110  70.7385 289.5258 15.04786510329303
GAOFEN DUOMO (GFDM)     
1 45856U 20042A   26193.61395331  .00000817  00000+0  12306-3 0  9998
2 45856  97.7739 252.5741 0010875 359.1530   0.9660 14.76915052324768
ZIYUAN 3-03 (ZY 3-03)   
1 45939U 20051A   26193.63858656  .00000256  00000+0  14644-4 0  9991
2 45939  97.5371 260.6546 0002699 260.6356  99.4574 15.21186947331219
NEMO-HD                 
1 46277U 20061F   26193.65059361  .00007078  00000+0  15148-3 0  9994
2 46277  97.1911 255.3525 0001002  88.4257 271.7107 15.45103043325911
NAPA-1                  
1 46320U 20061BA  26193.59731488  .00061711  00000+0  47841-3 0  9992
2 46320  97.2449 268.6755 0002345 179.1995 180.9272 15.71652481325724
JILIN-1 GAOFEN 3E       
1 46457U 20065D   26193.60201075  .00052766  00000+0  49521-3 0  9990
2 46457  97.2221 246.8539 0010681  80.3621 279.8846 15.66955109323733
JILIN-1 GAOFEN 3F       
1 46458U 20065E   26193.61120136  .00046598  00000+0  49734-3 0  9992
2 46458  97.2177 244.0685 0011999  66.7796 293.4726 15.63719322323674
JILIN-1 GAOFEN 3G       
1 46459U 20065F   26193.58193331  .00098348  00000+0  61742-3 0  9999
2 46459  97.2238 251.3082 0005094 289.3403  70.7312 15.76452362323930
JILIN-1 GAOFEN 3H       
1 46460U 20065G   26193.61778179  .00076118  00000+0  58210-3 0  9991
2 46460  97.2180 247.5005 0005980 211.2943 148.7966 15.71908922323874
HAIYANG-2C              
1 46469U 20066A   26193.61351530 -.00000137  00000+0 -50441-4 0  9998
2 46469  65.9957 151.9779 0007757 237.1086 122.9236 13.83372662293015
HJ-2A                   
1 46478U 20067A   26193.64575851  .00000666  00000+0  10265-3 0  9990
2 46478  97.8825 271.4156 0003920 162.1256 198.0092 14.76547884312013
HJ-2B                   
1 46479U 20067B   26193.61444883  .00000456  00000+0  72543-4 0  9993
2 46479  97.8890 272.4275 0001893 106.8725 253.2693 14.76509595312010
GONETS-M 17             
1 46486U 20068A   26193.56622130  .00000005  00000+0 -34845-4 0  9993
2 46486  82.5003 331.7132 0021945 342.5119  17.5203 12.42873943262319
GONETS-M 18             
1 46487U 20068B   26193.61036641 -.00000018  00000+0 -20275-3 0  9992
2 46487  82.4956 330.7941 0019167 339.0302  20.9990 12.42874673262302
GONETS-M 19             
1 46488U 20068C   26193.58542841 -.00000018  00000+0 -20145-3 0  9999
2 46488  82.4981 331.2646 0013187 355.9276   4.1694 12.42892686262402
DEKART                  
1 46493U 20068H   26193.58673969  .00007498  00000+0  20339-3 0  9993
2 46493  97.8739 204.6859 0008962 181.6932 178.4282 15.37910721319674
